     2.12           N: GNSS NAV DATA    E: GALILEO          RINEX VERSION / TYPE
GS10 V12.10                             09-DEC-23 23:59     PGM / RUN BY / DATE
GAL    1.3375D+02 -8.4375D-01  1.4343D-03  0.0000D+00       IONOSPHERIC CORR
GAUT -9.3132257462D-10 0.000000000D+00 518400 2291          TIME SYSTEM CORR
GPGA -2.7648638934D-09-5.773159728D-15      0 2292          TIME SYSTEM CORR
    18    18  1929     7                                    LEAP SECONDS
                                                            END OF HEADER
E33 2023 12 10 01 40 00 3.910856321454D-06 6.963318810449D-13 0.000000000000D+00
     1.000000000000D+01-1.736875000000D+02 2.662968066166D-09-2.667613587396D+00
    -8.042901754379D-06 3.155004233122D-04 4.280358552933D-06 5.440609096527D+03
     6.000000000000D+03 3.352761268616D-08-1.252879079145D+00 1.490116119385D-08
     9.997948995049D-01 2.663437500000D+02-2.135993094103D+00-5.520587097469D-09
    -2.860833450911D-10 5.170000000000D+02 2.292000000000D+03 0.000000000000D+00
     3.120000000000D+00 0.000000000000D+00-3.725290298462D-09-4.190951585770D-09
     6.664000000000D+03
E24 2023 12 10 01 40 00-4.773028194904D-04-2.090416728606D-11 0.000000000000D+00
     1.000000000000D+01 1.476562500000D+02 2.706541309738D-09 1.258229406511D+00
     6.938353180885D-06 6.936315912753D-04 1.026690006256D-05 5.440642061234D+03
     6.000000000000D+03-2.235174179077D-08 2.943101004222D+00-7.450580596924D-09
     9.658466902715D-01 1.208750000000D+02 7.181244462514D-01-5.374152426448D-09
     4.393040130612D-11 5.170000000000D+02 2.292000000000D+03 0.000000000000D+00
     3.120000000000D+00 0.000000000000D+00-3.492459654808D-09-4.190951585770D-09
     6.664000000000D+03
E31 2023 12 10 01 40 00-1.143576810136D-05-6.394884621841D-13 0.000000000000D+00
     1.000000000000D+01 1.490000000000D+02 2.763686547209D-09-3.017109952317D+00
     7.063150405884D-06 2.278907923028D-04 1.100637018681D-05 5.440628614426D+03
     6.000000000000D+03-1.117587089539D-08 2.939734722928D+00 0.000000000000D+00
     9.679718976977D-01 1.078125000000D+02-5.242195878043D-01-5.351294331460D-09
     5.928818387655D-11 5.170000000000D+02 2.292000000000D+03 0.000000000000D+00
     3.120000000000D+00 0.000000000000D+00 4.656612873077D-09 5.122274160385D-09
     6.664000000000D+03
E26 2023 12 10 01 40 00 3.051325911656D-04 1.107025582314D-11 0.000000000000D+00
     1.000000000000D+01-1.891562500000D+02 2.644038706254D-09-2.204938945632D+00
    -8.746981620789D-06 3.367143217474D-04 4.461035132408D-06 5.440608972549D+03
     6.000000000000D+03 1.303851604462D-08-1.252073059560D+00 1.117587089539D-08
     9.930998870994D-01 2.593437500000D+02-1.864048917531D+00-5.541659403786D-09
    -3.121558596874D-10 5.170000000000D+02 2.292000000000D+03 0.000000000000D+00
     3.120000000000D+00 0.000000000000D+00-4.889443516731D-09-5.587935447693D-09
     6.664000000000D+03
E19 2023 12 10 01 40 00-1.046808669344D-03 7.673861546209D-11 0.000000000000D+00
     1.000000000000D+01 1.871875000000D+01 3.502288741527D-09 2.523960942201D+00
     8.046627044678D-07 1.399233005941D-04 5.008652806282D-06 5.440607877731D+03
     6.000000000000D+03 3.725290298462D-09 8.450963275056D-01-2.235174179077D-08
     9.652901479578D-01 2.346562500000D+02-3.091882467578D+00-5.692737125351D-09
     2.903692379014D-10 5.170000000000D+02 2.292000000000D+03 0.000000000000D+00
     3.120000000000D+00 0.000000000000D+00-3.725290298462D-09-3.725290298462D-09
     6.664000000000D+03
E08 2023 12 10 01 40 00-1.897850306705D-04-5.869082997378D-12 0.000000000000D+00
     1.000000000000D+01 9.187500000000D+00 3.494074113640D-09 6.312598319687D-01
     4.209578037262D-07 2.092041540891D-04 5.044043064117D-06 5.440594882965D+03
     6.000000000000D+03 2.607703208923D-08 8.399611705200D-01-5.774199962616D-08
     9.655814325024D-01 2.380312500000D+02 1.082739500446D+00-5.650592512716D-09
     1.860791795162D-10 5.170000000000D+02 2.292000000000D+03 0.000000000000D+00
     3.120000000000D+00 0.000000000000D+00-3.259629011154D-09-3.958120942116D-09
     6.664000000000D+03
E33 2023 12 10 01 40 00 3.911787644029D-06 6.963318810449D-13 0.000000000000D+00
     1.000000000000D+01-1.736875000000D+02 2.662968066166D-09-2.667613587396D+00
    -8.042901754379D-06 3.155004233122D-04 4.280358552933D-06 5.440609096527D+03
     6.000000000000D+03 3.352761268616D-08-1.252879079145D+00 1.490116119385D-08
     9.997948995049D-01 2.663437500000D+02-2.135993094103D+00-5.520587097469D-09
    -2.860833450911D-10 2.580000000000D+02 2.292000000000D+03 0.000000000000D+00
     3.120000000000D+00 0.000000000000D+00-3.725290298462D-09 0.000000000000D+00
     6.700000000000D+03
E31 2023 12 10 01 40 00-1.143570989370D-05-6.394884621841D-13 0.000000000000D+00
     1.000000000000D+01 1.490000000000D+02 2.763686547209D-09-3.017109952317D+00
     7.063150405884D-06 2.278907923028D-04 1.100637018681D-05 5.440628614426D+03
     6.000000000000D+03-1.117587089539D-08 2.939734722928D+00 0.000000000000D+00
     9.679718976977D-01 1.078125000000D+02-5.242195878043D-01-5.351294331460D-09
     5.928818387655D-11 2.580000000000D+02 2.292000000000D+03 0.000000000000D+00
     3.120000000000D+00 0.000000000000D+00 4.656612873077D-09 0.000000000000D+00
     6.700000000000D+03
E19 2023 12 10 01 40 00-1.046807679813D-03 7.672440460738D-11 0.000000000000D+00
     1.000000000000D+01 1.871875000000D+01 3.502288741527D-09 2.523960942201D+00
     8.046627044678D-07 1.399233005941D-04 5.008652806282D-06 5.440607877731D+03
     6.000000000000D+03 3.725290298462D-09 8.450963275056D-01-2.235174179077D-08
     9.652901479578D-01 2.346562500000D+02-3.091882467578D+00-5.692737125351D-09
     2.903692379014D-10 2.580000000000D+02 2.292000000000D+03 0.000000000000D+00
     3.120000000000D+00 0.000000000000D+00-3.725290298462D-09 0.000000000000D+00
     6.700000000000D+03
E08 2023 12 10 01 40 00-1.897839247249D-04-5.883293852094D-12 0.000000000000D+00
     1.000000000000D+01 9.187500000000D+00 3.494074113640D-09 6.312598319687D-01
     4.209578037262D-07 2.092041540891D-04 5.044043064117D-06 5.440594882965D+03
     6.000000000000D+03 2.607703208923D-08 8.399611705200D-01-5.774199962616D-08
     9.655814325024D-01 2.380312500000D+02 1.082739500446D+00-5.650592512716D-09
     1.860791795162D-10 2.580000000000D+02 2.292000000000D+03 0.000000000000D+00
     3.120000000000D+00 0.000000000000D+00-3.259629011154D-09 0.000000000000D+00
     6.700000000000D+03
E24 2023 12 10 01 40 00-4.773015389219D-04-2.090416728606D-11 0.000000000000D+00
     1.000000000000D+01 1.476562500000D+02 2.706541309738D-09 1.258229406511D+00
     6.938353180885D-06 6.936315912753D-04 1.026690006256D-05 5.440642061234D+03
     6.000000000000D+03-2.235174179077D-08 2.943101004222D+00-7.450580596924D-09
     9.658466902715D-01 1.208750000000D+02 7.181244462514D-01-5.374152426448D-09
     4.393040130612D-11 2.580000000000D+02 2.292000000000D+03 0.000000000000D+00
     3.120000000000D+00 0.000000000000D+00-3.492459654808D-09 0.000000000000D+00
     6.700000000000D+03
E26 2023 12 10 01 40 00 3.051336971112D-04 1.107025582314D-11 0.000000000000D+00
     1.000000000000D+01-1.891562500000D+02 2.644038706254D-09-2.204938945632D+00
    -8.746981620789D-06 3.367143217474D-04 4.461035132408D-06 5.440608972549D+03
     6.000000000000D+03 1.303851604462D-08-1.252073059560D+00 1.117587089539D-08
     9.930998870994D-01 2.593437500000D+02-1.864048917531D+00-5.541659403786D-09
    -3.121558596874D-10 2.580000000000D+02 2.292000000000D+03 0.000000000000D+00
     3.120000000000D+00 0.000000000000D+00-4.889443516731D-09 0.000000000000D+00
     6.700000000000D+03
E10 2023 12 10 01 30 00-5.851633031853D-04-2.842170943040D-12 0.000000000000D+00
     9.000000000000D+00-1.583125000000D+02 2.556892219110D-09-3.129187238477D+00
    -7.394701242447D-06 1.557572977617D-04 4.643574357033D-06 5.440610622406D+03
     5.400000000000D+03-5.029141902924D-08-1.254690534531D+00-6.705522537231D-08
     9.996372832482D-01 2.567187500000D+02-2.950566352715D+00-5.497014687012D-09
    -3.478716331070D-10 5.170000000000D+02 2.292000000000D+03 0.000000000000D+00
     3.120000000000D+00 0.000000000000D+00-2.328306436539D-10 4.656612873077D-10
     7.075000000000D+03
E10 2023 12 10 01 30 00-5.851637688465D-04-2.842170943040D-12 0.000000000000D+00
     9.000000000000D+00-1.583125000000D+02 2.556892219110D-09-3.129187238477D+00
    -7.394701242447D-06 1.557572977617D-04 4.643574357033D-06 5.440610622406D+03
     5.400000000000D+03-5.029141902924D-08-1.254690534531D+00-6.705522537231D-08
     9.996372832482D-01 2.567187500000D+02-2.950566352715D+00-5.497014687012D-09
    -3.478716331070D-10 2.580000000000D+02 2.292000000000D+03 0.000000000000D+00
     3.120000000000D+00 0.000000000000D+00-2.328306436539D-10 0.000000000000D+00
     7.100000000000D+03
E33 2023 12 10 01 50 00 3.911321982741D-06 7.105427357601D-13 0.000000000000D+00
     1.100000000000D+01-1.754062500000D+02 2.655824911482D-09-2.592542509573D+00
    -8.119270205498D-06 3.153897123411D-04 4.323199391365D-06 5.440609579086D+03
     6.600000000000D+03 2.980232238770D-08-1.252882411673D+00 1.490116119385D-08
     9.997947239548D-01 2.654062500000D+02-2.136678724308D+00-5.519158466532D-09
    -2.839403986859D-10 5.170000000000D+02 2.292000000000D+03 0.000000000000D+00
     3.120000000000D+00 0.000000000000D+00-3.725290298462D-09-4.190951585770D-09
     7.264000000000D+03
E24 2023 12 10 01 50 00-4.773153923452D-04-2.090416728606D-11 0.000000000000D+00
     1.100000000000D+01 1.476250000000D+02 2.702255416928D-09 1.332607656572D+00
     6.945803761482D-06 6.936276331544D-04 1.026690006256D-05 5.440642070770D+03
     6.600000000000D+03-2.235174179077D-08 2.943097747766D+00-1.303851604462D-08
     9.658467253815D-01 1.209687500000D+02 7.181301662611D-01-5.370223691372D-09
     4.571618997710D-11 5.170000000000D+02 2.292000000000D+03 0.000000000000D+00
     3.120000000000D+00 0.000000000000D+00-3.492459654808D-09-4.190951585770D-09
     7.264000000000D+03
